OBJECT_NAME,OBJECT_ID,EPOCH,MEAN_MOTION,ECCENTRICITY,INCLINATION,RA_OF_ASC_NODE,ARG_OF_PERICENTER,MEAN_ANOMALY,EPHEMERIS_TYPE,CLASSIFICATION_TYPE,NORAD_CAT_ID,ELEMENT_SET_NO,REV_AT_EPOCH,BSTAR,MEAN_MOTION_DOT,MEAN_MOTION_DDOT
GSAT0225 (GALILEO 29),2024-079A,2026-07-06T11:11:52.550016,1.70473925,.00010247,55.1299,100.5421,304.6843,233.1982,0,U,59598,999,1364,0,-.1E-7,0
GSAT0227 (GALILEO 30),2024-079C,2026-07-06T22:43:23.740320,1.70473885,.0002635,55.1260,100.5264,63.1115,296.9335,0,U,59600,999,1370,0,-.3E-7,0
GSAT0232 (GALILEO 32),2024-167A,2026-07-07T03:53:01.724064,1.70474080,.0006486,55.1811,220.7661,230.3460,117.2781,0,U,61182,999,1121,0,.8E-6,0
GSAT0226 (GALILEO 31),2024-167B,2026-07-06T10:36:23.137344,1.70474095,.00031165,55.1797,220.7927,233.2666,123.8786,0,U,61183,999,1117,0,.78E-6,0
BEIDOU-3 M25 (C47),2024-168B,2026-07-07T08:48:08.851968,1.86230030,.000328,54.4544,301.5420,293.0034,94.3413,0,U,61186,999,1216,0,-.64E-6,0
BEIDOU-3 M27 (C49),2024-168C,2026-07-06T13:47:14.125056,1.86230146,.0001069,54.4506,301.5523,47.5868,303.5952,0,U,61187,999,961,0,-.62E-6,0
GPS BIII-7  (PRN 01),2024-242A,2026-06-29T19:34:38.856864,2.00572141,.00176262,54.8437,333.6698,4.4449,3.3802,0,U,62339,999,1151,0,-.94E-6,0
QZS-6 (QZSS/PRN 200),2025-023A,2026-07-07T10:45:18.443232,1.00269614,.0001905,0.0320,296.2841,188.1669,52.8075,0,U,62876,999,515,0,-.218E-5,0
COSMOS 2584 (704K),2025-042A,2026-07-04T12:04:02.572320,2.13103855,.00060594,65.0947,72.2135,222.1818,137.8396,0,U,63130,999,1041,0,-.1E-6,0
GPS BIII-8  (PRN 21),2025-116A,2026-07-07T06:45:38.792736,2.00574400,.0008349,55.2499,30.3230,339.7972,202.1311,0,U,64202,999,827,0,-.56E-6,0
COSMOS 2596 (708K),2025-206B,2026-07-04T02:44:57.844896,2.13100941,.0011142,64.6242,314.3970,309.2417,229.0730,0,U,65590,999,627,0,-.45E-6,0
GSAT0233 (GALILEO 33),2025-302A,2026-07-07T03:26:14.543232,1.70473948,.0000869,54.3464,101.5632,177.6820,346.3685,0,U,67160,999,346,0,-.3E-7,0
GSAT0234 (GALILEO 34),2025-302C,2026-07-07T11:14:42.495360,1.70474014,.0002162,54.3483,101.5528,322.9708,220.8395,0,U,67162,999,352,0,-.4E-7,0
GPS BIII-9  (PRN 20),2026-017A,2026-07-07T03:21:17.835264,2.00570703,.0021626,55.1006,87.9545,259.5022,100.2924,0,U,67588,999,43201,0,-.2E-6,0
GPS BIII-10 (PRN 13),2026-087A,2026-07-07T08:35:38.441184,2.00571938,.0020563,54.9625,206.9902,106.7119,256.3514,0,U,68791,999,124,0,.104E-5,0
